start=new Date('2022-08-01T00:00:00.000Z').valueOf();
sats=[{"NORAD_CAT_ID":"46542","APOAPSIS":"548.187","SITE":"AFETR","PERIOD":"95.592","TIME_SYSTEM":"UTC","REV_AT_EPOCH":"10098","TLE_LINE1":"1 46542U 20070L   22212.59811859  .00000522  00000-0  53917-4 0  9993","COUNTRY_CODE":"US","RCS_SIZE":"LARGE","FILE":"3526413","PERIAPSIS":"546.212","ELEMENT_SET_NO":"999","RA_OF_ASC_NODE":"329.2760","EPHEMERIS_TYPE":"0","MEAN_ANOMALY":"280.0374","OBJECT_NAME":"STARLINK-1692","BSTAR":"0.00005391700000","LAUNCH_DATE":"2020-10-06","MEAN_MOTION_DOT":"0.00000522","MEAN_MOTION":"15.06404718","MEAN_MOTION_DDOT":"0.0000000000000","OBJECT_TYPE":"PAYLOAD","CENTER_NAME":"EARTH","INCLINATION":"53.0566","DECAY_DATE":null,"ARG_OF_PERICENTER":"80.0776","REF_FRAME":"TEME","MEAN_ELEMENT_THEORY":"SGP4","OBJECT_ID":"2020-070L","CLASSIFICATION_TYPE":"U","GP_ID":"209293707","EPOCH":"2022-07-31T14:21:17.446176","TLE_LINE2":"2 46542  53.0566 329.2760 0001426  80.0776 280.0374 15.06404718100986","SEMIMAJOR_AXIS":"6925.334","ECCENTRICITY":"0.00014260"},{"EPOCH":"2022-07-31T17:11:09.248064","GP_ID":"209294451","CLASSIFICATION_TYPE":"U","OBJECT_ID":"2020-070M","ECCENTRICITY":"0.00015270","TLE_LINE2":"2 46543  53.0566 328.7404 0001527  80.8397 279.2764 15.06393833101007","SEMIMAJOR_AXIS":"6925.367","OBJECT_TYPE":"PAYLOAD","MEAN_ELEMENT_THEORY":"SGP4","REF_FRAME":"TEME","ARG_OF_PERICENTER":"80.8397","DECAY_DATE":null,"INCLINATION":"53.0566","CENTER_NAME":"EARTH","MEAN_MOTION_DOT":"0.00000477","BSTAR":"0.00005092300000","LAUNCH_DATE":"2020-10-06","OBJECT_NAME":"STARLINK-1693","MEAN_ANOMALY":"279.2764","EPHEMERIS_TYPE":"0","RA_OF_ASC_NODE":"328.7404","MEAN_MOTION_DDOT":"0.0000000000000","MEAN_MOTION":"15.06393833","REV_AT_EPOCH":"10100","TIME_SYSTEM":"UTC","PERIOD":"95.593","APOAPSIS":"548.290","SITE":"AFETR","NORAD_CAT_ID":"46543","ELEMENT_SET_NO":"999","PERIAPSIS":"546.175","FILE":"3526413","COUNTRY_CODE":"US","RCS_SIZE":"LARGE","TLE_LINE1":"1 46543U 20070M   22212.71607926  .00000477  00000-0  50923-4 0  9999"},{"ARG_OF_PERICENTER":"79.3052","REF_FRAME":"TEME","MEAN_ELEMENT_THEORY":"SGP4","CENTER_NAME":"EARTH","INCLINATION":"53.0545","DECAY_DATE":null,"OBJECT_TYPE":"PAYLOAD","TLE_LINE2":"2 46544  53.0545 313.7771 0001259  79.3052 280.8078 15.06397007101215","SEMIMAJOR_AXIS":"6925.358","ECCENTRICITY":"0.00012590","GP_ID":"209292707","CLASSIFICATION_TYPE":"U","EPOCH":"2022-07-31T17:05:10.523040","OBJECT_ID":"2020-070N","PERIAPSIS":"546.351","ELEMENT_SET_NO":"999","TLE_LINE1":"1 46544U 20070N   22212.71192735  .00000783  00000-0  71475-4 0  9992","COUNTRY_CODE":"US","RCS_SIZE":"LARGE","FILE":"3526413","REV_AT_EPOCH":"10121","NORAD_CAT_ID":"46544","APOAPSIS":"548.095","SITE":"AFETR","PERIOD":"95.592","TIME_SYSTEM":"UTC","MEAN_MOTION":"15.06397007","MEAN_MOTION_DDOT":"0.0000000000000","MEAN_MOTION_DOT":"0.00000783","EPHEMERIS_TYPE":"0","RA_OF_ASC_NODE":"313.7771","MEAN_ANOMALY":"280.8078","OBJECT_NAME":"STARLINK-1694","LAUNCH_DATE":"2020-10-06","BSTAR":"0.00007147500000"},{"OBJECT_TYPE":"PAYLOAD","DECAY_DATE":null,"INCLINATION":"53.0554","CENTER_NAME":"EARTH","MEAN_ELEMENT_THEORY":"SGP4","REF_FRAME":"TEME","ARG_OF_PERICENTER":"82.6801","OBJECT_ID":"2020-070P","EPOCH":"2022-07-31T19:39:46.226592","GP_ID":"209292957","CLASSIFICATION_TYPE":"U","ECCENTRICITY":"0.00013380","TLE_LINE2":"2 46545  53.0554 328.2866 0001338  82.6801 277.4340 15.06390635101011","SEMIMAJOR_AXIS":"6925.377","TIME_SYSTEM":"UTC","PERIOD":"95.593","APOAPSIS":"548.169","SITE":"AFETR","NORAD_CAT_ID":"46545","REV_AT_EPOCH":"10101","FILE":"3526413","COUNTRY_CODE":"US","RCS_SIZE":"LARGE","TLE_LINE1":"1 46545U 20070P   22212.81928503  .00000758  00000-0  69794-4 0  9997","ELEMENT_SET_NO":"999","PERIAPSIS":"546.316","LAUNCH_DATE":"2020-10-06","BSTAR":"0.00006979400000","MEAN_ANOMALY":"277.4340","OBJECT_NAME":"STARLINK-1696","EPHEMERIS_TYPE":"0","RA_OF_ASC_NODE":"328.2866","MEAN_MOTION_DOT":"0.00000758","MEAN_MOTION_DDOT":"0.0000000000000","MEAN_MOTION":"15.06390635"},{"DECAY_DATE":null,"INCLINATION":"53.0567","CENTER_NAME":"EARTH","MEAN_ELEMENT_THEORY":"SGP4","REF_FRAME":"TEME","ARG_OF_PERICENTER":"68.4118","OBJECT_TYPE":"PAYLOAD","ECCENTRICITY":"0.00015650","TLE_LINE2":"2 46546  53.0567 328.6434 0001565  68.4118 291.7038 15.06400339101001","SEMIMAJOR_AXIS":"6925.348","OBJECT_ID":"2020-070Q","GP_ID":"209294207","EPOCH":"2022-07-31T17:42:59.394816","CLASSIFICATION_TYPE":"U","FILE":"3526413","COUNTRY_CODE":"US","RCS_SIZE":"LARGE","TLE_LINE1":"1 46546U 20070Q   22212.73818744 -.00000023  00000-0  17332-4 0  9991","ELEMENT_SET_NO":"999","PERIAPSIS":"546.129","TIME_SYSTEM":"UTC","PERIOD":"95.592","SITE":"AFETR","APOAPSIS":"548.296","NORAD_CAT_ID":"46546","REV_AT_EPOCH":"10100","MEAN_MOTION_DDOT":"0.0000000000000","MEAN_MOTION":"15.06400339","LAUNCH_DATE":"2020-10-06","BSTAR":"0.00001733200000","OBJECT_NAME":"STARLINK-1697","MEAN_ANOMALY":"291.7038","RA_OF_ASC_NODE":"328.6434","EPHEMERIS_TYPE":"0","MEAN_MOTION_DOT":"-0.00000023"},{"MEAN_MOTION":"15.06390741","MEAN_MOTION_DDOT":"0.0000000000000","MEAN_MOTION_DOT":"0.00000357","EPHEMERIS_TYPE":"0","RA_OF_ASC_NODE":"328.8056","MEAN_ANOMALY":"293.3734","OBJECT_NAME":"STARLINK-1698","BSTAR":"0.00004288300000","LAUNCH_DATE":"2020-10-06","PERIAPSIS":"546.365","ELEMENT_SET_NO":"999","TLE_LINE1":"1 46547U 20070R   22212.70039426  .00000357  00000-0  42883-4 0  9999","COUNTRY_CODE":"US","RCS_SIZE":"LARGE","FILE":"3526413","REV_AT_EPOCH":"10100","NORAD_CAT_ID":"46547","APOAPSIS":"548.119","SITE":"AFETR","PERIOD":"95.593","TIME_SYSTEM":"UTC","SEMIMAJOR_AXIS":"6925.377","TLE_LINE2":"2 46547  53.0564 328.8056 0001266  66.7388 293.3734 15.06390741101005","ECCENTRICITY":"0.00012660","GP_ID":"209293954","CLASSIFICATION_TYPE":"U","EPOCH":"2022-07-31T16:48:34.064064","OBJECT_ID":"2020-070R","ARG_OF_PERICENTER":"66.7388","REF_FRAME":"TEME","MEAN_ELEMENT_THEORY":"SGP4","CENTER_NAME":"EARTH","INCLINATION":"53.0564","DECAY_DATE":null,"OBJECT_TYPE":"PAYLOAD"},{"MEAN_MOTION_DOT":"0.00001790","BSTAR":"0.00013906000000","LAUNCH_DATE":"2020-10-06","OBJECT_NAME":"STARLINK-1699","MEAN_ANOMALY":"277.1685","RA_OF_ASC_NODE":"328.7637","EPHEMERIS_TYPE":"0","MEAN_MOTION_DDOT":"0.0000000000000","MEAN_MOTION":"15.06398152","REV_AT_EPOCH":"10100","TIME_SYSTEM":"UTC","PERIOD":"95.592","APOAPSIS":"548.138","SITE":"AFETR","NORAD_CAT_ID":"46548","ELEMENT_SET_NO":"999","PERIAPSIS":"546.300","FILE":"3526413","COUNTRY_CODE":"US","RCS_SIZE":"LARGE","TLE_LINE1":"1 46548U 20070S   22212.71238546  .00001790  00000-0  13906-3 0  9990","CLASSIFICATION_TYPE":"U","GP_ID":"209293207","EPOCH":"2022-07-31T17:05:50.103744","OBJECT_ID":"2020-070S","ECCENTRICITY":"0.00013270","SEMIMAJOR_AXIS":"6925.354","TLE_LINE2":"2 46548  53.0562 328.7637 0001327  82.9455 277.1685 15.06398152101000","OBJECT_TYPE":"PAYLOAD","MEAN_ELEMENT_THEORY":"SGP4","REF_FRAME":"TEME","ARG_OF_PERICENTER":"82.9455","DECAY_DATE":null,"INCLINATION":"53.0562","CENTER_NAME":"EARTH"},{"INCLINATION":"53.0562","CENTER_NAME":"EARTH","DECAY_DATE":null,"ARG_OF_PERICENTER":"84.0128","MEAN_ELEMENT_THEORY":"SGP4","REF_FRAME":"TEME","OBJECT_TYPE":"PAYLOAD","TLE_LINE2":"2 46549  53.0562 328.3375 0001247  84.0128 276.1003 15.06402193101012","SEMIMAJOR_AXIS":"6925.342","ECCENTRICITY":"0.00012470","OBJECT_ID":"2020-070T","GP_ID":"209293457","CLASSIFICATION_TYPE":"U","EPOCH":"2022-07-31T19:23:50.239968","TLE_LINE1":"1 46549U 20070T   22212.80822037  .00000748  00000-0  69080-4 0  9992","FILE":"3526413","COUNTRY_CODE":"US","RCS_SIZE":"LARGE","PERIAPSIS":"546.343","ELEMENT_SET_NO":"999","SITE":"AFETR","APOAPSIS":"548.070","NORAD_CAT_ID":"46549","TIME_SYSTEM":"UTC","PERIOD":"95.592","REV_AT_EPOCH":"10101","MEAN_MOTION":"15.06402193","MEAN_MOTION_DDOT":"0.0000000000000","RA_OF_ASC_NODE":"328.3375","EPHEMERIS_TYPE":"0","BSTAR":"0.00006908000000","LAUNCH_DATE":"2020-10-06","MEAN_ANOMALY":"276.1003","OBJECT_NAME":"STARLINK-1700","MEAN_MOTION_DOT":"0.00000748"},{"MEAN_ANOMALY":"290.0134","OBJECT_NAME":"STARLINK-1701","BSTAR":"0.00001088500000","LAUNCH_DATE":"2020-10-06","RA_OF_ASC_NODE":"329.3002","EPHEMERIS_TYPE":"0","MEAN_MOTION_DOT":"-0.00000119","MEAN_MOTION_DDOT":"0.0000000000000","MEAN_MOTION":"15.06397637","PERIOD":"95.592","TIME_SYSTEM":"UTC","NORAD_CAT_ID":"46550","SITE":"AFETR","APOAPSIS":"548.193","REV_AT_EPOCH":"10098","COUNTRY_CODE":"US","RCS_SIZE":"LARGE","FILE":"3526413","TLE_LINE1":"1 46550U 20070U   22212.59443708 -.00000119  00000-0  10885-4 0  9996","ELEMENT_SET_NO":"999","PERIAPSIS":"546.248","OBJECT_ID":"2020-070U","GP_ID":"209293708","CLASSIFICATION_TYPE":"U","EPOCH":"2022-07-31T14:15:59.363712","ECCENTRICITY":"0.00014040","TLE_LINE2":"2 46550  53.0552 329.3002 0001404  70.1006 290.0134 15.06397637100988","SEMIMAJOR_AXIS":"6925.356","OBJECT_TYPE":"PAYLOAD","DECAY_DATE":null,"CENTER_NAME":"EARTH","INCLINATION":"53.0552","REF_FRAME":"TEME","MEAN_ELEMENT_THEORY":"SGP4","ARG_OF_PERICENTER":"70.1006"},{"MEAN_MOTION_DDOT":"0.0000000000000","MEAN_MOTION":"15.06403360","MEAN_MOTION_DOT":"0.00001958","BSTAR":"0.00015031000000","LAUNCH_DATE":"2020-10-06","MEAN_ANOMALY":"282.3007","OBJECT_NAME":"STARLINK-1649","RA_OF_ASC_NODE":"313.8665","EPHEMERIS_TYPE":"0","ELEMENT_SET_NO":"999","PERIAPSIS":"546.424","FILE":"3526413","COUNTRY_CODE":"US","RCS_SIZE":"LARGE","TLE_LINE1":"1 46552U 20070W   22212.68611979  .00001958  00000-0  15031-3 0  9993","REV_AT_EPOCH":"10121","TIME_SYSTEM":"UTC","PERIOD":"95.592","APOAPSIS":"547.982","SITE":"AFETR","NORAD_CAT_ID":"46552","ECCENTRICITY":"0.00011250","SEMIMAJOR_AXIS":"6925.338","TLE_LINE2":"2 46552  53.0559 313.8665 0001125  77.8108 282.3007 15.06403360101218","CLASSIFICATION_TYPE":"U","GP_ID":"209294452","EPOCH":"2022-07-31T16:28:00.749856","OBJECT_ID":"2020-070W","MEAN_ELEMENT_THEORY":"SGP4","REF_FRAME":"TEME","ARG_OF_PERICENTER":"77.8108","DECAY_DATE":null,"INCLINATION":"53.0559","CENTER_NAME":"EARTH","OBJECT_TYPE":"PAYLOAD"}];
